{
  "type": "FeatureCollection",
  "features": [
    {
      "type": "Feature",
      "properties": {
        "norad_id": 36695,
        "name": "FENGYUN 1C DEB",
        "group": "fengyun-1c-debris",
        "lat": 70.38293190351568,
        "lon": 177.5283233370379,
        "alt_km": 556.4800365883539,
        "timestamp": "2025-12-18T10:51:26.096419+00:00",
        "meta_object_name": "FENGYUN 1C DEB",
        "meta_object_id": "1999-025DZR",
        "meta_epoch": "2025-12-17T04:25:52.075200",
        "meta_mean_motion": 14.43754104,
        "meta_eccentricity": 0.02575669,
        "meta_inclination": 98.2204,
        "meta_ra_of_asc_node": 332.3743,
        "meta_arg_of_pericenter": 116.9061,
        "meta_mean_anomaly": 245.87,
        "meta_ephemeris_type": 0,
        "meta_classification_type": "U",
        "meta_norad_cat_id": 36695,
        "meta_element_set_no": 999,
        "meta_rev_at_epoch": 89632,
        "meta_bstar": 0.00014097537,
        "meta_mean_motion_dot": 6.66e-06,
        "meta_mean_motion_ddot": 0,
        "tle_line1": "1 36695U 99025DZR 25351.18463050  .00000666  00000+0  14098-3 0  9999",
        "tle_line2": "2 36695  98.2204 332.3743 0257566 116.9061 245.8700 14.43754104896323"
      },
      "geometry": {
        "type": "Point",
        "coordinates": [
          177.5283233370379,
          70.38293190351568
        ]
      }
    },
    {
      "type": "Feature",
      "properties": {
        "norad_id": 36696,
        "name": "FENGYUN 1C DEB",
        "group": "fengyun-1c-debris",
        "lat": -79.27453747337559,
        "lon": 125.00519183469328,
        "alt_km": 757.1775128600439,
        "timestamp": "2025-12-18T10:51:26.096429+00:00",
        "meta_object_name": "FENGYUN 1C DEB",
        "meta_object_id": "1999-025DZS",
        "meta_epoch": "2025-12-12T23:29:27.613248",
        "meta_mean_motion": 14.39206881,
        "meta_eccentricity": 0.00228959,
        "meta_inclination": 98.9916,
        "meta_ra_of_asc_node": 355.9822,
        "meta_arg_of_pericenter": 328.4138,
        "meta_mean_anomaly": 31.5673,
        "meta_ephemeris_type": 0,
        "meta_classification_type": "U",
        "meta_norad_cat_id": 36696,
        "meta_element_set_no": 999,
        "meta_rev_at_epoch": 64399,
        "meta_bstar": 0.0029501232,
        "meta_mean_motion_dot": 9.135e-05,
        "meta_mean_motion_ddot": 0,
        "tle_line1": "1 36696U 99025DZS 25346.97879182  .00009135  00000+0  29501-2 0  9992",
        "tle_line2": "2 36696  98.9916 355.9822 0022895 328.4138  31.5673 14.39206881643991"
      },
      "geometry": {
        "type": "Point",
        "coordinates": [
          125.00519183469328,
          -79.27453747337559
        ]
      }
    },
    {
      "type": "Feature",
      "properties": {
        "norad_id": 36699,
        "name": "FENGYUN 1C DEB",
        "group": "fengyun-1c-debris",
        "lat": -9.016518651657035,
        "lon": -11.823395781878942,
        "alt_km": 851.052185828059,
        "timestamp": "2025-12-18T10:51:26.096439+00:00",
        "meta_object_name": "FENGYUN 1C DEB",
        "meta_object_id": "1999-025DZV",
        "meta_epoch": "2025-12-15T05:20:38.452128",
        "meta_mean_motion": 14.24296403,
        "meta_eccentricity": 0.00947132,
        "meta_inclination": 98.5591,
        "meta_ra_of_asc_node": 343.661,
        "meta_arg_of_pericenter": 122.958,
        "meta_mean_anomaly": 238.075,
        "meta_ephemeris_type": 0,
        "meta_classification_type": "U",
        "meta_norad_cat_id": 36699,
        "meta_element_set_no": 999,
        "meta_rev_at_epoch": 73362,
        "meta_bstar": 0.00025043284,
        "meta_mean_motion_dot": 5.64e-06,
        "meta_mean_motion_ddot": 0,
        "tle_line1": "1 36699U 99025DZV 25349.22266727  .00000564  00000+0  25043-3 0  9996",
        "tle_line2": "2 36699  98.5591 343.6610 0094713 122.9580 238.0750 14.24296403733627"
      },
      "geometry": {
        "type": "Point",
        "coordinates": [
          -11.823395781878942,
          -9.016518651657035
        ]
      }
    },
    {
      "type": "Feature",
      "properties": {
        "norad_id": 36701,
        "name": "FENGYUN 1C DEB",
        "group": "fengyun-1c-debris",
        "lat": -52.8384601009271,
        "lon": -33.98118735038256,
        "alt_km": 916.1018682715412,
        "timestamp": "2025-12-18T10:51:26.096449+00:00",
        "meta_object_name": "FENGYUN 1C DEB",
        "meta_object_id": "1999-025DZX",
        "meta_epoch": "2025-12-17T03:36:27.439776",
        "meta_mean_motion": 13.71349788,
        "meta_eccentricity": 0.02590644,
        "meta_inclination": 102.7448,
        "meta_ra_of_asc_node": 306.923,
        "meta_arg_of_pericenter": 243.4462,
        "meta_mean_anomaly": 113.9905,
        "meta_ephemeris_type": 0,
        "meta_classification_type": "U",
        "meta_norad_cat_id": 36701,
        "meta_element_set_no": 999,
        "meta_rev_at_epoch": 61199,
        "meta_bstar": 0.0015992707,
        "meta_mean_motion_dot": 1.752e-05,
        "meta_mean_motion_ddot": 0,
        "tle_line1": "1 36701U 99025DZX 25351.15031759  .00001752  00000+0  15993-2 0  9992",
        "tle_line2": "2 36701 102.7448 306.9230 0259064 243.4462 113.9905 13.71349788611994"
      },
      "geometry": {
        "type": "Point",
        "coordinates": [
          -33.98118735038256,
          -52.8384601009271
        ]
      }
    },
    {
      "type": "Feature",
      "properties": {
        "norad_id": 36707,
        "name": "FENGYUN 1C DEB",
        "group": "fengyun-1c-debris",
        "lat": 79.64822707725595,
        "lon": -84.02176411345947,
        "alt_km": 791.6360131982938,
        "timestamp": "2025-12-18T10:51:26.096459+00:00",
        "meta_object_name": "FENGYUN 1C DEB",
        "meta_object_id": "1999-025EAD",
        "meta_epoch": "2025-12-15T21:24:57.607488",
        "meta_mean_motion": 14.17320288,
        "meta_eccentricity": 0.00498055,
        "meta_inclination": 98.7526,
        "meta_ra_of_asc_node": 35.9569,
        "meta_arg_of_pericenter": 113.0035,
        "meta_mean_anomaly": 247.6404,
        "meta_ephemeris_type": 0,
        "meta_classification_type": "U",
        "meta_norad_cat_id": 36707,
        "meta_element_set_no": 999,
        "meta_rev_at_epoch": 64124,
        "meta_bstar": 0.00062545572,
        "meta_mean_motion_dot": 1.237e-05,
        "meta_mean_motion_ddot": 0,
        "tle_line1": "1 36707U 99025EAD 25349.89233342  .00001237  00000+0  62546-3 0  9993",
        "tle_line2": "2 36707  98.7526  35.9569 0049805 113.0035 247.6404 14.17320288641248"
      },
      "geometry": {
        "type": "Point",
        "coordinates": [
          -84.02176411345947,
          79.64822707725595
        ]
      }
    },
    {
      "type": "Feature",
      "properties": {
        "norad_id": 36710,
        "name": "FENGYUN 1C DEB",
        "group": "fengyun-1c-debris",
        "lat": -46.12884672339388,
        "lon": 58.36471475047481,
        "alt_km": 774.0145134688028,
        "timestamp": "2025-12-18T10:51:26.096469+00:00",
        "meta_object_name": "FENGYUN 1C DEB",
        "meta_object_id": "1999-025EAG",
        "meta_epoch": "2025-12-15T10:11:57.749280",
        "meta_mean_motion": 14.49882943,
        "meta_eccentricity": 0.00679739,
        "meta_inclination": 98.3812,
        "meta_ra_of_asc_node": 46.5328,
        "meta_arg_of_pericenter": 173.535,
        "meta_mean_anomaly": 186.6737,
        "meta_ephemeris_type": 0,
        "meta_classification_type": "U",
        "meta_norad_cat_id": 36710,
        "meta_element_set_no": 999,
        "meta_rev_at_epoch": 64992,
        "meta_bstar": 0.00098752348,
        "meta_mean_motion_dot": 3.884e-05,
        "meta_mean_motion_ddot": 0,
        "tle_line1": "1 36710U 99025EAG 25349.42497395  .00003884  00000+0  98752-3 0  9994",
        "tle_line2": "2 36710  98.3812  46.5328 0067973 173.5350 186.6737 14.49882943649924"
      },
      "geometry": {
        "type": "Point",
        "coordinates": [
          58.36471475047481,
          -46.12884672339388
        ]
      }
    },
    {
      "type": "Feature",
      "properties": {
        "norad_id": 36711,
        "name": "FENGYUN 1C DEB",
        "group": "fengyun-1c-debris",
        "lat": 36.393555976763444,
        "lon": 5.160991040091521,
        "alt_km": 812.3154449603535,
        "timestamp": "2025-12-18T10:51:26.096480+00:00",
        "meta_object_name": "FENGYUN 1C DEB",
        "meta_object_id": "1999-025EAH",
        "meta_epoch": "2025-12-15T19:25:24.600864",
        "meta_mean_motion": 14.42474443,
        "meta_eccentricity": 0.01001739,
        "meta_inclination": 100.8044,
        "meta_ra_of_asc_node": 9.912,
        "meta_arg_of_pericenter": 199.8566,
        "meta_mean_anomaly": 159.8704,
        "meta_ephemeris_type": 0,
        "meta_classification_type": "U",
        "meta_norad_cat_id": 36711,
        "meta_element_set_no": 999,
        "meta_rev_at_epoch": 64355,
        "meta_bstar": 0.0014307525,
        "meta_mean_motion_dot": 4.969e-05,
        "meta_mean_motion_ddot": 0,
        "tle_line1": "1 36711U 99025EAH 25349.80931251  .00004969  00000+0  14308-2 0  9990",
        "tle_line2": "2 36711 100.8044   9.9120 0100173 199.8566 159.8704 14.42474443643558"
      },
      "geometry": {
        "type": "Point",
        "coordinates": [
          5.160991040091521,
          36.393555976763444
        ]
      }
    }
  ]
}